{"version": 0.6, "generator": "Overpass API 0.7.62.5 1bd436f1", "osm3s": {"timestamp_osm_base": "2025-06-03T12:59:59Z", "copyright": "The data included in this document is from www.openstreetmap.org. The data is made available under ODbL."}, "elements": [{"type": "node", "id": 302330426, "lat": 52.0428838, "lon": 4.6463324, "tags": {"amenity": "post_box", "collection_times": "Mo 17:00"}}, {"type": "node", "id": 302330621, "lat": 52.0371542, "lon": 4.6359533, "tags": {"amenity": "post_office", "atm": "no", "name": "PostNL", "operator": "PostNL", "operator:wikidata": "Q5921598", "source": "survey"}}, {"type": "node", "id": 303648200, "lat": 52.04385, "lon": 4.6622506, "tags": {"amenity": "post_box", "collection_times": "Mo-Fr 17:00"}}, {"type": "node", "id": 311524912, "lat": 52.0306259, "lon": 4.6530615, "tags": {"amenity": "post_box", "collection_times": "Mo 17:00"}}, {"type": "node", "id": 348127872, "lat": 52.0648813, "lon": 4.6482045, "tags": {"amenity": "post_office", "check_date": "2024-07-01", "name": "PostNL Pakketpunt", "wheelchair": "yes"}}, {"type": "node", "id": 387796441, "lat": 52.0184439, "lon": 4.6211363, "tags": {"amenity": "post_box"}}, {"type": "node", "id": 389758213, "lat": 52.1317159, "lon": 4.5906021, "tags": {"amenity": "post_box", "ref": "x"}}, {"type": "node", "id": 401235096, "lat": 52.0649208, "lon": 4.6487528, "tags": {"amenity": "post_box", "check_date:collection_times": "2024-06-06", "collection_times": "Mo-Fr 17:00"}}, {"type": "node", "id": 422928581, "lat": 52.0369696, "lon": 4.6359523, "tags": {"amenity": "post_box"}}, {"type": "node", "id": 446297450, "lat": 52.0318666, "lon": 4.6332451, "tags": {"amenity": "post_box"}}, {"type": "node", "id": 478777008, "lat": 52.0492388, "lon": 4.6541047, "tags": {"amenity": "post_box"}}, {"type": "node", "id": 478778297, "lat": 52.034286, "lon": 4.6328584, "tags": {"amenity": "post_box"}}, {"type": "node", "id": 484675215, "lat": 52.0531866, "lon": 4.6441194, "tags": {"amenity": "post_box"}}, {"type": "node", "id": 566445523, "lat": 52.0544836, "lon": 4.6537602, "tags": {"amenity": "post_box"}}, {"type": "node", "id": 574689034, "lat": 52.1263204, "lon": 4.5842684, "tags": {"amenity": "post_box", "ref": "Potgieterlaan 1"}}, {"type": "node", "id": 653315796, "lat": 52.024904, "lon": 4.6559587, "tags": {"amenity": "post_box"}}, {"type": "node", "id": 661085135, "lat": 52.0735616, "lon": 4.6586064, "tags": {"amenity": "post_box"}}, {"type": "node", "id": 686650292, "lat": 52.0860979, "lon": 4.6311102, "tags": {"amenity": "post_box"}}, {"type": "node", "id": 686674147, "lat": 52.0816049, "lon": 4.6610358, "tags": {"amenity": "post_box"}}, {"type": "node", "id": 773294823, "lat": 52.105326, "lon": 4.7295507, "tags": {"amenity": "post_box"}}, {"type": "node", "id": 773303114, "lat": 52.0464233, "lon": 4.6414402, "tags": {"amenity": "post_box", "collection_times": "Mo 17:00"}}, {"type": "node", "id": 781387563, "lat": 52.1203504, "lon": 4.6668219, "tags": {"amenity": "post_box", "ref": "Prins Hendrikstraat 28"}}, {"type": "node", "id": 827646566, "lat": 52.0752568, "lon": 4.6597252, "tags": {"amenity": "post_box"}}, {"type": "node", "id": 827686580, "lat": 52.0737766, "lon": 4.6659844, "tags": {"amenity": "post_box", "collection_times": "Mo-Fr 18:00; Sa-Su off", "operator": "PostNL", "operator:type": "private", "operator:website": "https://www.postnl.nl/", "operator:wikidata": "Q5921598", "operator:wikipedia": "nl:PostNL", "website": "https://hollandsemeestersamstelveen.nl/nl/"}}, {"type": "node", "id": 1024854319, "lat": 52.1180163, "lon": 4.675926, "tags": {"amenity": "post_box", "ref": "x"}}, {"type": "node", "id": 1025558165, "lat": 52.1034986, "lon": 4.5553075, "tags": {"amenity": "post_box", "operator": "PostNL", "operator:type": "private", "operator:website": "https://www.postnl.nl/", "operator:wikidata": "Q5921598", "operator:wikipedia": "nl:PostNL"}}, {"type": "node", "id": 1037895822, "lat": 52.1252586, "lon": 4.6490166, "tags": {"amenity": "post_box", "ref": "Euromarkt 95"}}, {"type": "node", "id": 1045570270, "lat": 52.1116283, "lon": 4.6907918, "tags": {"amenity": "post_box", "ref": "x"}}, {"type": "node", "id": 1045570670, "lat": 52.1152217, "lon": 4.6959291, "tags": {"amenity": "post_box", "operator": "PostNL", "operator:wikidata": "Q5921598", "ref": "Steekterweg 92"}}, {"type": "node", "id": 1057716642, "lat": 52.1167837, "lon": 4.6947314, "tags": {"amenity": "post_box", "ref": "Kortsteekseweg 25"}}, {"type": "node", "id": 1061903681, "lat": 52.0312686, "lon": 4.6595225, "tags": {"amenity": "post_box", "collection_times": "Mo 17:00"}}, {"type": "node", "id": 1068510497, "lat": 52.1304969, "lon": 4.6648647, "tags": {"amenity": "post_box", "operator": "PostNL", "operator:wikidata": "Q5921598", "ref": "Aarplein 3"}}, {"type": "node", "id": 1357156125, "lat": 52.0743001, "lon": 4.6476116, "tags": {"amenity": "post_box"}}, {"type": "node", "id": 1456017952, "lat": 52.0773445, "lon": 4.627394, "tags": {"amenity": "post_box"}}, {"type": "node", "id": 1469433914, "lat": 52.0716019, "lon": 4.641973, "tags": {"amenity": "post_box"}}, {"type": "node", "id": 1625364134, "lat": 52.124341, "lon": 4.6704218, "tags": {"amenity": "post_box", "ref": "Stellingmolen 45"}}, {"type": "node", "id": 1625548071, "lat": 52.123617, "lon": 4.6511412, "tags": {"amenity": "post_box", "ref": "Noorderkeerkring 6"}}, {"type": "node", "id": 1673542921, "lat": 52.0552298, "lon": 4.6470933, "tags": {"amenity": "post_box"}}, {"type": "node", "id": 1683420897, "lat": 52.1187848, "lon": 4.6489905, "tags": {"amenity": "post_box", "ref": "Zuiderkeerkring 237"}}, {"type": "node", "id": 1696390644, "lat": 52.0959537, "lon": 4.5975979, "tags": {"amenity": "post_box"}}, {"type": "node", "id": 1696390704, "lat": 52.0971535, "lon": 4.5929322, "tags": {"amenity": "post_box"}}, {"type": "node", "id": 1719374979, "lat": 52.1175355, "lon": 4.6627288, "tags": {"amenity": "post_box", "ref": "Polderpeil 546"}}, {"type": "node", "id": 1722138101, "lat": 52.0498199, "lon": 4.66027, "tags": {"amenity": "post_box", "operator": "PostNL", "operator:wikidata": "Q5921598"}}, {"type": "node", "id": 1801775269, "lat": 52.0485291, "lon": 4.6486988, "tags": {"amenity": "post_box"}}, {"type": "node", "id": 2688716531, "lat": 52.1404599, "lon": 4.6754137, "tags": {"amenity": "post_box", "collection_times": "17:00", "operator": "PostNL", "operator:wikidata": "Q5921598", "ref": "Parelstraat 35"}}, {"type": "node", "id": 3869003857, "lat": 52.0965944, "lon": 4.5890416, "tags": {"amenity": "post_box"}}, {"type": "node", "id": 3969203253, "lat": 52.1433504, "lon": 4.6621352, "tags": {"amenity": "post_box", "ref": "Meteoorlaan 4"}}, {"type": "node", "id": 3969206309, "lat": 52.1417445, "lon": 4.6661077, "tags": {"amenity": "post_box", "ref": "Uranusstraat 34"}}, {"type": "node", "id": 4336917005, "lat": 52.1415148, "lon": 4.6474779, "tags": {"amenity": "post_box", "ref": "x"}}, {"type": "node", "id": 4683402682, "lat": 52.0443682, "lon": 4.6557314, "tags": {"amenity": "post_box", "collection_times": "Mo 17:00", "drive_through": "no", "wheelchair": "yes"}}, {"type": "node", "id": 4772964705, "lat": 52.0971566, "lon": 4.5929923, "tags": {"amenity": "post_office"}}, {"type": "node", "id": 4816726034, "lat": 52.1530472, "lon": 4.6570208, "tags": {"amenity": "post_box", "ref": "Wever 46"}}, {"type": "node", "id": 4816726038, "lat": 52.1547009, "lon": 4.6517186, "tags": {"amenity": "post_box", "check_date": "2024-02-05", "ref": "Poortwachter55"}}, {"type": "node", "id": 4816726049, "lat": 52.1486768, "lon": 4.648992, "tags": {"amenity": "post_box", "ref": "Kalkhovenweg 28"}}, {"type": "node", "id": 4840158379, "lat": 52.1518539, "lon": 4.6606678, "tags": {"amenity": "post_box", "collection_times": "Mo-Fr 17:00", "ref": "Keizerhof 70"}}, {"type": "node", "id": 4840158398, "lat": 52.1521364, "lon": 4.6693178, "tags": {"amenity": "post_box", "collection_times": "Mo-Fr 17:00", "ref": "Bronkhorst 65"}}, {"type": "node", "id": 4840158408, "lat": 52.1492772, "lon": 4.6813518, "tags": {"amenity": "post_box", "collection_times": "Mo-Fr 17:00", "ref": "Paddestoelweg 45"}}, {"type": "node", "id": 4918350591, "lat": 52.1327203, "lon": 4.5978105, "tags": {"amenity": "post_box", "ref": "x"}}, {"type": "node", "id": 4918350592, "lat": 52.1331593, "lon": 4.6010797, "tags": {"amenity": "post_box", "operator": "PostNL", "operator:wikidata": "Q5921598", "ref": "Prins Bernhardstraat 1"}}, {"type": "node", "id": 4945554829, "lat": 52.1367165, "lon": 4.6535347, "tags": {"amenity": "post_box", "operator": "PostNL", "operator:type": "private", "operator:website": "https://www.postnl.nl/", "operator:wikidata": "Q5921598", "operator:wikipedia": "nl:PostNL", "ref": "Van Nesstraat 37", "website": "https://hollandsemeestersamstelveen.nl/nl/"}}, {"type": "node", "id": 4945554843, "lat": 52.1329455, "lon": 4.6517591, "tags": {"amenity": "post_box", "ref": "Anna van Burenlaan 137"}}, {"type": "node", "id": 4985179450, "lat": 52.132282, "lon": 4.668152, "tags": {"amenity": "post_box", "ref": "x"}}, {"type": "node", "id": 6069296095, "lat": 52.1281332, "lon": 4.5883731, "tags": {"amenity": "post_box", "check_date": "2025-03-30", "operator": "PostNL", "operator:wikidata": "Q5921598", "ref": "Da Costasingel 5A"}}, {"type": "node", "id": 6937287757, "lat": 52.0443883, "lon": 4.6502684, "tags": {"amenity": "post_box", "collection_times": "Mo-Fr 17:00"}}, {"type": "node", "id": 6954229286, "lat": 52.0777754, "lon": 4.6793273, "tags": {"amenity": "post_box"}}, {"type": "node", "id": 6954229287, "lat": 52.0768313, "lon": 4.6469656, "tags": {"amenity": "post_box"}}, {"type": "node", "id": 6964270542, "lat": 52.1191085, "lon": 4.6420197, "tags": {"amenity": "post_box", "ref": "Lisdodde 30"}}, {"type": "node", "id": 7098308480, "lat": 52.145757, "lon": 4.6824986, "tags": {"amenity": "post_box", "check_date": "2022-11-05", "collection_times": "Mo-Fr 17:00", "ref": "Veldbloemenweg 43"}}, {"type": "node", "id": 7098308481, "lat": 52.1453718, "lon": 4.6754457, "tags": {"amenity": "post_box", "check_date": "2022-09-12", "collection_times": "Mo-Fr 17:00", "ref": "Troubadourweg 6A"}}, {"type": "node", "id": 7098308482, "lat": 52.1504057, "lon": 4.6528427, "tags": {"amenity": "post_box", "ref": "Grevelingen 15"}}, {"type": "node", "id": 7098370059, "lat": 52.1383596, "lon": 4.6272067, "tags": {"amenity": "post_box", "ref": "Hoogwaard 237A"}}, {"type": "node", "id": 7098370060, "lat": 52.138922, "lon": 4.6393511, "tags": {"amenity": "post_box", "ref": "Ondernemingsweg 1"}}, {"type": "node", "id": 7098570585, "lat": 52.130671, "lon": 4.6049733, "tags": {"amenity": "post_box", "ref": "Den Tollstraat 1"}}, {"type": "node", "id": 7098570586, "lat": 52.136016, "lon": 4.6065599, "tags": {"amenity": "post_box", "ref": "Kerklaan 101"}}, {"type": "node", "id": 7098570587, "lat": 52.1293422, "lon": 4.5972057, "tags": {"amenity": "post_box", "ref": "Melkweglaan 65"}}, {"type": "node", "id": 7098570588, "lat": 52.1271605, "lon": 4.5950425, "tags": {"amenity": "post_box", "ref": "Van Beethovenlaan 2"}}, {"type": "node", "id": 7105101668, "lat": 52.1264236, "lon": 4.6508733, "tags": {"amenity": "post_box", "operator": "PostNL", "operator:wikidata": "Q5921598", "ref": "Euromarkt 95"}}, {"type": "node", "id": 7220656837, "lat": 52.1350104, "lon": 4.6487315, "tags": {"amenity": "post_box"}}, {"type": "node", "id": 8901678928, "lat": 52.0234043, "lon": 4.6548575, "tags": {"amenity": "post_box"}}, {"type": "node", "id": 11333642753, "lat": 52.095523, "lon": 4.5786025, "tags": {"amenity": "post_box", "operator": "PostNL", "operator:wikidata": "Q5921598"}}, {"type": "node", "id": 11660022577, "lat": 52.1293769, "lon": 4.5698856, "tags": {"amenity": "post_box"}}]}