{"version": 0.6, "generator": "Overpass API 0.7.62.5 1bd436f1", "osm3s": {"timestamp_osm_base": "2025-06-03T12:49:44Z", "copyright": "The data included in this document is from www.openstreetmap.org. The data is made available under ODbL."}, "elements": [{"type": "node", "id": 439785745, "lat": 51.6127532, "lon": 4.7436609, "tags": {"amenity": "post_box", "check_date": "2024-03-04", "operator": "PostNL", "operator:wikidata": "Q5921598"}}, {"type": "node", "id": 491578612, "lat": 51.5665929, "lon": 4.7457095, "tags": {"amenity": "post_box", "collection_times": "Mo-Fr 17:00", "operator": "PostNL", "operator:wikidata": "Q5921598", "operator:wikipedia": "nl:PostNL"}}, {"type": "node", "id": 491579392, "lat": 51.5532991, "lon": 4.732843, "tags": {"amenity": "post_box", "check_date": "2024-02-05", "operator": "PostNL", "operator:wikidata": "Q5921598"}}, {"type": "node", "id": 652458655, "lat": 51.5710597, "lon": 4.7732523, "tags": {"amenity": "post_box", "operator": "PostNL", "operator:wikidata": "Q5921598"}}, {"type": "node", "id": 961438040, "lat": 51.5835688, "lon": 4.7316233, "tags": {"amenity": "post_box", "image": "https://photos.app.goo.gl/xRSs2kgXLipWEG2t8", "operator": "PostNL", "operator:wikidata": "Q5921598"}}, {"type": "node", "id": 1715980377, "lat": 51.5863453, "lon": 4.7778189, "tags": {"amenity": "post_box", "operator": "PostNL", "operator:wikidata": "Q5921598"}}, {"type": "node", "id": 3358902384, "lat": 51.5765993, "lon": 4.7559973, "tags": {"amenity": "post_box", "collection_times": "Mo-Fr 17:00", "operator": "PostNL", "operator:wikidata": "Q5921598"}}, {"type": "node", "id": 4489071264, "lat": 51.6237457, "lon": 4.7509114, "tags": {"amenity": "post_box", "operator": "PostNL", "operator:wikidata": "Q5921598"}}, {"type": "node", "id": 4510807732, "lat": 51.5946044, "lon": 4.7799826, "tags": {"amenity": "post_box", "operator": "PostNL", "operator:wikidata": "Q5921598"}}, {"type": "node", "id": 4583166439, "lat": 51.6108038, "lon": 4.7672852, "tags": {"amenity": "post_box", "operator": "PostNL", "operator:wikidata": "Q5921598"}}, {"type": "node", "id": 4585116930, "lat": 51.6229435, "lon": 4.7425498, "tags": {"amenity": "post_box", "operator": "PostNL", "operator:wikidata": "Q5921598"}}, {"type": "node", "id": 4712962930, "lat": 51.5727419, "lon": 4.8069083, "tags": {"addr:city": "Breda", "addr:housenumber": "20", "addr:postcode": "4834HE", "addr:street": "De Burcht", "amenity": "post_office", "name": "PostNL Postkantoor Breda", "operator": "PostNL", "operator:wikidata": "Q5921598", "phone:NL": "0900 0990", "source": "BAG", "source:date": "2017-02-08", "website": "https://www.postnl.nl/"}}, {"type": "node", "id": 4735951539, "lat": 51.5864267, "lon": 4.7497715, "tags": {"amenity": "post_box", "collection_times": "Fr 17:00", "operator": "PostNL", "operator:wikidata": "Q5921598"}}, {"type": "node", "id": 4735951543, "lat": 51.5672168, "lon": 4.774521, "tags": {"amenity": "post_box", "operator": "PostNL", "operator:wikidata": "Q5921598"}}, {"type": "node", "id": 4775202320, "lat": 51.5914475, "lon": 4.8345411, "tags": {"amenity": "post_box", "check_date": "2024-03-02", "operator": "PostNL", "operator:wikidata": "Q5921598"}}, {"type": "node", "id": 4795641661, "lat": 51.5676352, "lon": 4.8059569, "tags": {"amenity": "post_box", "operator": "PostNL", "operator:wikidata": "Q5921598"}}, {"type": "node", "id": 5117995555, "lat": 51.5699928, "lon": 4.7843238, "tags": {"amenity": "post_box", "operator": "PostNL", "operator:wikidata": "Q5921598"}}, {"type": "node", "id": 5699786982, "lat": 51.6126401, "lon": 4.7860013, "tags": {"amenity": "post_box", "operator": "PostNL", "operator:wikidata": "Q5921598"}}, {"type": "node", "id": 5801361565, "lat": 51.5862864, "lon": 4.7647733, "tags": {"amenity": "post_box", "collection_times": "Mo-Sa 17:00", "operator": "PostNL", "operator:wikidata": "Q5921598"}}, {"type": "node", "id": 5896013576, "lat": 51.5893406, "lon": 4.7778907, "tags": {"amenity": "post_box", "operator": "PostNL", "operator:wikidata": "Q5921598"}}, {"type": "node", "id": 5909712407, "lat": 51.5740817, "lon": 4.7830203, "tags": {"amenity": "post_box", "collection_times": "Mo 17:00", "operator": "PostNL", "operator:wikidata": "Q5921598"}}, {"type": "node", "id": 6198975427, "lat": 51.5711972, "lon": 4.7999036, "tags": {"amenity": "post_box", "image": "https://photos.app.goo.gl/ed5HcrrHxKrVBE198", "mapillary": "131630669001910", "operator": "PostNL", "operator:wikidata": "Q5921598"}}, {"type": "node", "id": 6338802689, "lat": 51.5792105, "lon": 4.7521763, "tags": {"amenity": "post_box", "collection_times": "Mo-Fr 17:00", "operator": "PostNL", "operator:wikidata": "Q5921598"}}, {"type": "node", "id": 7726278610, "lat": 51.5988631, "lon": 4.7934392, "tags": {"amenity": "post_box", "operator": "PostNL", "operator:wikidata": "Q5921598"}}, {"type": "node", "id": 8553402920, "lat": 51.5782956, "lon": 4.7388651, "tags": {"amenity": "post_box", "collection_times": "Mo-Fr 17:00", "operator": "PostNL", "operator:wikidata": "Q5921598"}}, {"type": "node", "id": 8553402921, "lat": 51.5711479, "lon": 4.7352008, "tags": {"amenity": "post_box", "operator": "PostNL", "operator:wikidata": "Q5921598"}}, {"type": "node", "id": 8659013979, "lat": 51.5728655, "lon": 4.8066659, "tags": {"amenity": "post_box", "operator": "PostNL", "operator:wikidata": "Q5921598"}}, {"type": "node", "id": 8961102058, "lat": 51.5751602, "lon": 4.7952524, "tags": {"amenity": "post_box", "operator": "PostNL", "operator:wikidata": "Q5921598"}}, {"type": "node", "id": 9137893656, "lat": 51.5699971, "lon": 4.7910976, "tags": {"amenity": "post_box", "operator": "PostNL", "operator:wikidata": "Q5921598"}}, {"type": "node", "id": 9137903190, "lat": 51.6069125, "lon": 4.7888927, "tags": {"amenity": "post_box", "operator": "PostNL", "operator:wikidata": "Q5921598"}}, {"type": "node", "id": 9137955222, "lat": 51.6084676, "lon": 4.7970213, "tags": {"amenity": "post_box", "operator": "PostNL", "operator:wikidata": "Q5921598"}}, {"type": "node", "id": 9137955291, "lat": 51.6043603, "lon": 4.8039335, "tags": {"amenity": "post_box", "operator": "PostNL", "operator:wikidata": "Q5921598"}}, {"type": "node", "id": 9773346668, "lat": 51.616376, "lon": 4.7531435, "tags": {"amenity": "post_box", "operator": "PostNL", "operator:wikidata": "Q5921598"}}, {"type": "node", "id": 10027984111, "lat": 51.5816348, "lon": 4.7987316, "tags": {"amenity": "post_box", "operator": "PostNL", "operator:wikidata": "Q5921598"}}, {"type": "node", "id": 10894565879, "lat": 51.5983524, "lon": 4.7515978, "tags": {"addr:city": "Breda", "addr:housenumber": "53", "addr:postcode": "4815HV", "addr:street": "Spinveld", "amenity": "post_office", "brand": "DHL", "brand:wikidata": "Q489815", "name": "DHL Pakketpunt XL Breda", "opening_hours": "Mo-Fr 10:00-19:00; Sa 10:00-14:00", "phone:NL": "0900 2222120", "source": "BAG", "source:date": "2023-05-13", "website": "https://www.dhlparcel.nl/"}}, {"type": "node", "id": 10989594286, "lat": 51.5668985, "lon": 4.7972609, "tags": {"amenity": "post_box", "operator": "PostNL", "operator:wikidata": "Q5921598"}}, {"type": "node", "id": 11329763682, "lat": 51.5770043, "lon": 4.7390946, "tags": {"amenity": "post_box", "historic": "yes", "image": "https://photos.app.goo.gl/GDE5BjrkouzRn1Qn6", "name": "BRIEVENBUS"}}, {"type": "node", "id": 11586853999, "lat": 51.5739195, "lon": 4.6926782, "tags": {"amenity": "post_box", "check_date": "2024-02-05", "operator": "PostNL", "operator:wikidata": "Q5921598"}}, {"type": "node", "id": 11586963474, "lat": 51.4912309, "lon": 4.7453115, "tags": {"amenity": "post_box", "check_date": "2024-02-05", "operator": "PostNL", "operator:wikidata": "Q5921598"}}, {"type": "node", "id": 11591677605, "lat": 51.5843264, "lon": 4.8034546, "tags": {"amenity": "post_box", "check_date": "2024-02-06", "operator": "PostNL", "operator:wikidata": "Q5921598"}}, {"type": "node", "id": 11591677607, "lat": 51.5833016, "lon": 4.8184645, "tags": {"amenity": "post_box", "check_date": "2024-02-06", "operator": "PostNL", "operator:wikidata": "Q5921598"}}, {"type": "node", "id": 11591677608, "lat": 51.5892991, "lon": 4.8218422, "tags": {"amenity": "post_box", "check_date": "2024-02-06", "operator": "PostNL", "operator:wikidata": "Q5921598"}}, {"type": "node", "id": 11591677609, "lat": 51.5881205, "lon": 4.8093602, "tags": {"amenity": "post_box", "check_date": "2024-02-06", "operator": "PostNL", "operator:wikidata": "Q5921598"}}, {"type": "node", "id": 11657009413, "lat": 51.5730518, "lon": 4.7502042, "tags": {"amenity": "post_box", "check_date": "2024-02-23", "operator": "PostNL", "operator:wikidata": "Q5921598"}}, {"type": "node", "id": 11657027474, "lat": 51.5769521, "lon": 4.7704859, "tags": {"amenity": "post_box", "check_date": "2024-02-23", "operator": "PostNL", "operator:wikidata": "Q5921598"}}, {"type": "node", "id": 11657033610, "lat": 51.5883994, "lon": 4.7663376, "tags": {"amenity": "post_box", "check_date": "2024-02-23", "operator": "PostNL", "operator:wikidata": "Q5921598"}}, {"type": "node", "id": 11657033612, "lat": 51.5872983, "lon": 4.7540821, "tags": {"amenity": "post_box", "check_date": "2024-02-23", "operator": "PostNL", "operator:wikidata": "Q5921598"}}, {"type": "node", "id": 11684613116, "lat": 51.5855046, "lon": 4.7894452, "tags": {"amenity": "post_box", "check_date": "2024-03-02", "operator": "PostNL", "operator:wikidata": "Q5921598"}}, {"type": "node", "id": 11684637136, "lat": 51.5906754, "lon": 4.8015156, "tags": {"amenity": "post_box", "check_date": "2024-03-02", "operator": "PostNL", "operator:wikidata": "Q5921598"}}, {"type": "node", "id": 11684637138, "lat": 51.5898571, "lon": 4.7930972, "tags": {"amenity": "post_box", "check_date": "2024-03-02", "operator": "PostNL", "operator:wikidata": "Q5921598"}}, {"type": "node", "id": 11684646901, "lat": 51.5942674, "lon": 4.8278287, "tags": {"amenity": "post_box", "check_date": "2024-03-02", "indoor": "no", "material": "metal", "operator": "PostNL", "operator:wikidata": "Q5921598", "post_box:type": "parcel", "source": "survey"}}, {"type": "node", "id": 11684651644, "lat": 51.5917393, "lon": 4.7839907, "tags": {"amenity": "post_box", "check_date": "2024-03-02", "operator": "PostNL", "operator:wikidata": "Q5921598"}}, {"type": "node", "id": 11684683489, "lat": 51.5813561, "lon": 4.7817448, "tags": {"amenity": "post_box", "check_date": "2024-03-02", "operator": "PostNL", "operator:wikidata": "Q5921598"}}, {"type": "node", "id": 11684683492, "lat": 51.5914303, "lon": 4.7621076, "tags": {"amenity": "post_box", "check_date": "2024-03-02", "operator": "PostNL", "operator:wikidata": "Q5921598"}}, {"type": "node", "id": 11684683493, "lat": 51.5952399, "lon": 4.8089256, "tags": {"amenity": "post_box", "check_date": "2024-03-02", "operator": "PostNL", "operator:wikidata": "Q5921598"}}, {"type": "node", "id": 11690864452, "lat": 51.6066732, "lon": 4.7258322, "tags": {"amenity": "post_box", "check_date": "2024-03-04", "operator": "PostNL", "operator:wikidata": "Q5921598"}}, {"type": "node", "id": 11690864453, "lat": 51.6041492, "lon": 4.7346228, "tags": {"amenity": "post_box", "check_date": "2024-03-04", "operator": "PostNL", "operator:wikidata": "Q5921598"}}, {"type": "node", "id": 11690864454, "lat": 51.6170351, "lon": 4.7342908, "tags": {"amenity": "post_box", "check_date": "2024-03-04", "operator": "PostNL", "operator:wikidata": "Q5921598"}}, {"type": "node", "id": 11690864455, "lat": 51.6224292, "lon": 4.7333775, "tags": {"amenity": "post_box", "check_date": "2024-03-04", "operator": "PostNL", "operator:wikidata": "Q5921598"}}, {"type": "node", "id": 11690864456, "lat": 51.6069232, "lon": 4.7464579, "tags": {"amenity": "post_box", "check_date": "2024-03-04", "operator": "PostNL", "operator:wikidata": "Q5921598"}}, {"type": "node", "id": 11691227759, "lat": 51.5971159, "lon": 4.7695982, "tags": {"amenity": "post_box", "check_date": "2024-03-04", "operator": "PostNL", "operator:wikidata": "Q5921598"}}, {"type": "node", "id": 11691227761, "lat": 51.5989927, "lon": 4.7587579, "tags": {"amenity": "post_box", "check_date": "2024-03-04", "operator": "PostNL", "operator:wikidata": "Q5921598"}}, {"type": "node", "id": 11691227762, "lat": 51.5989479, "lon": 4.7382022, "tags": {"amenity": "post_box", "check_date": "2024-03-04", "operator": "PostNL", "operator:wikidata": "Q5921598"}}, {"type": "node", "id": 12370763420, "lat": 51.5802102, "lon": 4.7366342, "tags": {"amenity": "post_box", "check_date": "2024-02-23", "operator": "PostNL", "operator:wikidata": "Q5921598"}}]}